STARLINK-3770           
1 52554U 22051X   23149.90989423 -.00000798  00000+0 -32079-4 0  9994
2 52554  53.2179   9.6436 0000972  79.2104 280.8997 15.08837144 58174
STARLINK-3949           
1 52555U 22051Y   23149.99779120  .00000073  00000+0  22669-4 0  9993
2 52555  53.2184   4.2574 0001140  87.4397 272.6726 15.08840639 58260
STARLINK-3763           
1 52556U 22051Z   23149.99442923  .00022043  00000+0  10507-2 0  9999
2 52556  53.2168   2.5789 0003889 108.3584 251.7836 15.19054668 58288
STARLINK-3943           
1 52557U 22051AA  23149.98579303  .00000317  00000+0  37971-4 0  9998
2 52557  53.2184   4.3003 0001035  95.0429 265.0682 15.08840199 58262
STARLINK-3954           
1 52558U 22051AB  23149.98671427 -.00000788  00000+0 -31418-4 0  9993
2 52558  53.2177 354.2965 0001114  82.8539 277.2580 15.08838638 58394
STARLINK-3953           
1 52559U 22051AC  23149.99777229  .00000330  00000+0  38794-4 0  9997
2 52559  53.2175 354.4310 0001021  87.0504 273.0605 15.08841862 58390
STARLINK-3956           
1 52560U 22051AD  23149.85055207  .00000672  00000+0  60313-4 0  9990
2 52560  53.2173 354.9109 0001156  83.1750 276.9373 15.08839379 58372
STARLINK-3955           
1 52561U 22051AE  23150.03133262 -.00000487  00000+0 -12529-4 0  9993
2 52561  53.2186   9.0959 0000931  85.7563 274.3536 15.08838488 58191
STARLINK-3957           
1 52562U 22051AF  23149.97567086  .00000033  00000+0  20188-4 0  9995
2 52562  53.2185 354.3451 0001188  98.1585 261.9542 15.08842914 58391
STARLINK-3942           
1 52563U 22051AG  23149.90253099  .00001189  00000+0  92774-4 0  9998
2 52563  53.2183   9.6759 0001066  92.8789 267.2326 15.08838869 58240
STARLINK-3959           
1 52564U 22051AH  23149.89613075  .00001214  00000+0  94350-4 0  9992
2 52564  53.2183   9.7137 0001106  93.0424 267.0695 15.08837486 58247
STARLINK-3911           
1 52565U 22051AJ  23149.97934913 -.00000534  00000+0 -15465-4 0  9995
2 52565  53.2182 354.3296 0001167  96.5029 263.6096 15.08840973 58396
STARLINK-3938           
1 52566U 22051AK  23149.87309108 -.00000410  00000+0 -76976-5 0  9995
2 52566  53.2180   9.8080 0001087  98.6053 261.5063 15.08842856 58246
STARLINK-3929           
1 52567U 22051AL  23150.56815113 -.00000494  00000+0 -12983-4 0  9991
2 52567  53.2179 351.6896 0001094  93.5451 266.5667 15.08840379 58481
STARLINK-3930           
1 52568U 22051AM  23149.96095360  .00000158  00000+0  28034-4 0  9997
2 52568  53.2184 354.4107 0001089  92.1857 267.9260 15.08840554 58392
STARLINK-3927           
1 52569U 22051AN  23150.56446990  .00000299  00000+0  36882-4 0  9991
2 52569  53.2183 351.7028 0000932  83.9124 276.1974 15.08847180 58481
STARLINK-3924           
1 52570U 22051AP  23150.55343351 -.00000373  00000+0 -53754-5 0  9992
2 52570  53.2182 351.7543 0001080 110.6406 249.4702 15.08839697 58486
