[{"OBJECT_NAME":"STARLINK-3770","OBJECT_ID":"2022-051X","EPOCH":"2023-05-29T21:50:14.861472","MEAN_MOTION":15.08837144,"ECCENTRICITY":9.72e-5,"INCLINATION":53.2179,"RA_OF_ASC_NODE":9.6436,"ARG_OF_PERICENTER":79.2104,"MEAN_ANOMALY":280.8997,"EPHEMERIS_TYPE":0,"CLASSIFICATION_TYPE":"U","NORAD_CAT_ID":52554,"ELEMENT_SET_NO":999,"REV_AT_EPOCH":5817,"BSTAR":-3.2079e-5,"MEAN_MOTION_DOT":-7.98e-6,"MEAN_MOTION_DDOT":0},{"OBJECT_NAME":"STARLINK-3949","OBJECT_ID":"2022-051Y","EPOCH":"2023-05-29T23:56:49.159680","MEAN_MOTION":15.08840639,"ECCENTRICITY":0.000114,"INCLINATION":53.2184,"RA_OF_ASC_NODE":4.2574,"ARG_OF_PERICENTER":87.4397,"MEAN_ANOMALY":272.6726,"EPHEMERIS_TYPE":0,"CLASSIFICATION_TYPE":"U","NORAD_CAT_ID":52555,"ELEMENT_SET_NO":999,"REV_AT_EPOCH":5826,"BSTAR":2.2669e-5,"MEAN_MOTION_DOT":7.3e-7,"MEAN_MOTION_DDOT":0},{"OBJECT_NAME":"STARLINK-3763","OBJECT_ID":"2022-051Z","EPOCH":"2023-05-29T23:51:58.685472","MEAN_MOTION":15.19054668,"ECCENTRICITY":0.0003889,"INCLINATION":53.2168,"RA_OF_ASC_NODE":2.5789,"ARG_OF_PERICENTER":108.3584,"MEAN_ANOMALY":251.7836,"EPHEMERIS_TYPE":0,"CLASSIFICATION_TYPE":"U","NORAD_CAT_ID":52556,"ELEMENT_SET_NO":999,"REV_AT_EPOCH":5828,"BSTAR":0.0010507,"MEAN_MOTION_DOT":0.00022043,"MEAN_MOTION_DDOT":0},{"OBJECT_NAME":"STARLINK-3943","OBJECT_ID":"2022-051AA","EPOCH":"2023-05-29T23:39:32.517792","MEAN_MOTION":15.08840199,"ECCENTRICITY":0.0001035,"INCLINATION":53.2184,"RA_OF_ASC_NODE":4.3003,"ARG_OF_PERICENTER":95.0429,"MEAN_ANOMALY":265.0682,"EPHEMERIS_TYPE":0,"CLASSIFICATION_TYPE":"U","NORAD_CAT_ID":52557,"ELEMENT_SET_NO":999,"REV_AT_EPOCH":5826,"BSTAR":3.7971e-5,"MEAN_MOTION_DOT":3.17e-6,"MEAN_MOTION_DDOT":0},{"OBJECT_NAME":"STARLINK-3954","OBJECT_ID":"2022-051AB","EPOCH":"2023-05-29T23:40:52.112928","MEAN_MOTION":15.08838638,"ECCENTRICITY":0.0001114,"INCLINATION":53.2177,"RA_OF_ASC_NODE":354.2965,"ARG_OF_PERICENTER":82.8539,"MEAN_ANOMALY":277.258,"EPHEMERIS_TYPE":0,"CLASSIFICATION_TYPE":"U","NORAD_CAT_ID":52558,"ELEMENT_SET_NO":999,"REV_AT_EPOCH":5839,"BSTAR":-3.1418e-5,"MEAN_MOTION_DOT":-7.88e-6,"MEAN_MOTION_DDOT":0},{"OBJECT_NAME":"STARLINK-3953","OBJECT_ID":"2022-051AC","EPOCH":"2023-05-29T23:56:47.525856","MEAN_MOTION":15.08841862,"ECCENTRICITY":0.0001021,"INCLINATION":53.2175,"RA_OF_ASC_NODE":354.431,"ARG_OF_PERICENTER":87.0504,"MEAN_ANOMALY":273.0605,"EPHEMERIS_TYPE":0,"CLASSIFICATION_TYPE":"U","NORAD_CAT_ID":52559,"ELEMENT_SET_NO":999,"REV_AT_EPOCH":5839,"BSTAR":3.8794e-5,"MEAN_MOTION_DOT":3.3e-6,"MEAN_MOTION_DDOT":0},{"OBJECT_NAME":"STARLINK-3956","OBJECT_ID":"2022-051AD","EPOCH":"2023-05-29T20:24:47.698848","MEAN_MOTION":15.08839379,"ECCENTRICITY":0.0001156,"INCLINATION":53.2173,"RA_OF_ASC_NODE":354.9109,"ARG_OF_PERICENTER":83.175,"MEAN_ANOMALY":276.9373,"EPHEMERIS_TYPE":0,"CLASSIFICATION_TYPE":"U","NORAD_CAT_ID":52560,"ELEMENT_SET_NO":999,"REV_AT_EPOCH":5837,"BSTAR":6.0313e-5,"MEAN_MOTION_DOT":6.72e-6,"MEAN_MOTION_DDOT":0},{"OBJECT_NAME":"STARLINK-3955","OBJECT_ID":"2022-051AE","EPOCH":"2023-05-30T00:45:07.138368","MEAN_MOTION":15.08838488,"ECCENTRICITY":9.31e-5,"INCLINATION":53.2186,"RA_OF_ASC_NODE":9.0959,"ARG_OF_PERICENTER":85.7563,"MEAN_ANOMALY":274.3536,"EPHEMERIS_TYPE":0,"CLASSIFICATION_TYPE":"U","NORAD_CAT_ID":52561,"ELEMENT_SET_NO":999,"REV_AT_EPOCH":5819,"BSTAR":-1.2529e-5,"MEAN_MOTION_DOT":-4.87e-6,"MEAN_MOTION_DDOT":0},{"OBJECT_NAME":"STARLINK-3957","OBJECT_ID":"2022-051AF","EPOCH":"2023-05-29T23:24:57.962304","MEAN_MOTION":15.08842914,"ECCENTRICITY":0.0001188,"INCLINATION":53.2185,"RA_OF_ASC_NODE":354.3451,"ARG_OF_PERICENTER":98.1585,"MEAN_ANOMALY":261.9542,"EPHEMERIS_TYPE":0,"CLASSIFICATION_TYPE":"U","NORAD_CAT_ID":52562,"ELEMENT_SET_NO":999,"REV_AT_EPOCH":5839,"BSTAR":2.0188e-5,"MEAN_MOTION_DOT":3.3e-7,"MEAN_MOTION_DDOT":0},{"OBJECT_NAME":"STARLINK-3942","OBJECT_ID":"2022-051AG","EPOCH":"2023-05-29T21:39:38.677536","MEAN_MOTION":15.08838869,"ECCENTRICITY":0.0001066,"INCLINATION":53.2183,"RA_OF_ASC_NODE":9.6759,"ARG_OF_PERICENTER":92.8789,"MEAN_ANOMALY":267.2326,"EPHEMERIS_TYPE":0,"CLASSIFICATION_TYPE":"U","NORAD_CAT_ID":52563,"ELEMENT_SET_NO":999,"REV_AT_EPOCH":5824,"BSTAR":9.2774e-5,"MEAN_MOTION_DOT":1.189e-5,"MEAN_MOTION_DDOT":0},{"OBJECT_NAME":"STARLINK-3959","OBJECT_ID":"2022-051AH","EPOCH":"2023-05-29T21:30:25.696800","MEAN_MOTION":15.08837486,"ECCENTRICITY":0.0001106,"INCLINATION":53.2183,"RA_OF_ASC_NODE":9.7137,"ARG_OF_PERICENTER":93.0424,"MEAN_ANOMALY":267.0695,"EPHEMERIS_TYPE":0,"CLASSIFICATION_TYPE":"U","NORAD_CAT_ID":52564,"ELEMENT_SET_NO":999,"REV_AT_EPOCH":5824,"BSTAR":9.435e-5,"MEAN_MOTION_DOT":1.214e-5,"MEAN_MOTION_DDOT":0},{"OBJECT_NAME":"STARLINK-3911","OBJECT_ID":"2022-051AJ","EPOCH":"2023-05-29T23:30:15.764832","MEAN_MOTION":15.08840973,"ECCENTRICITY":0.0001167,"INCLINATION":53.2182,"RA_OF_ASC_NODE":354.3296,"ARG_OF_PERICENTER":96.5029,"MEAN_ANOMALY":263.6096,"EPHEMERIS_TYPE":0,"CLASSIFICATION_TYPE":"U","NORAD_CAT_ID":52565,"ELEMENT_SET_NO":999,"REV_AT_EPOCH":5839,"BSTAR":-1.5465e-5,"MEAN_MOTION_DOT":-5.34e-6,"MEAN_MOTION_DDOT":0},{"OBJECT_NAME":"STARLINK-3938","OBJECT_ID":"2022-051AK","EPOCH":"2023-05-29T20:57:15.069312","MEAN_MOTION":15.08842856,"ECCENTRICITY":0.0001087,"INCLINATION":53.218,"RA_OF_ASC_NODE":9.808,"ARG_OF_PERICENTER":98.6053,"MEAN_ANOMALY":261.5063,"EPHEMERIS_TYPE":0,"CLASSIFICATION_TYPE":"U","NORAD_CAT_ID":52566,"ELEMENT_SET_NO":999,"REV_AT_EPOCH":5824,"BSTAR":-7.6976e-6,"MEAN_MOTION_DOT":-4.1e-6,"MEAN_MOTION_DDOT":0},{"OBJECT_NAME":"STARLINK-3929","OBJECT_ID":"2022-051AL","EPOCH":"2023-05-30T13:38:08.257632","MEAN_MOTION":15.08840379,"ECCENTRICITY":0.0001094,"INCLINATION":53.2179,"RA_OF_ASC_NODE":351.6896,"ARG_OF_PERICENTER":93.5451,"MEAN_ANOMALY":266.5667,"EPHEMERIS_TYPE":0,"CLASSIFICATION_TYPE":"U","NORAD_CAT_ID":52567,"ELEMENT_SET_NO":999,"REV_AT_EPOCH":5848,"BSTAR":-1.2983e-5,"MEAN_MOTION_DOT":-4.94e-6,"MEAN_MOTION_DDOT":0},{"OBJECT_NAME":"STARLINK-3930","OBJECT_ID":"2022-051AM","EPOCH":"2023-05-29T23:03:46.391040","MEAN_MOTION":15.08840554,"ECCENTRICITY":0.0001089,"INCLINATION":53.2184,"RA_OF_ASC_NODE":354.4107,"ARG_OF_PERICENTER":92.1857,"MEAN_ANOMALY":267.926,"EPHEMERIS_TYPE":0,"CLASSIFICATION_TYPE":"U","NORAD_CAT_ID":52568,"ELEMENT_SET_NO":999,"REV_AT_EPOCH":5839,"BSTAR":2.8034e-5,"MEAN_MOTION_DOT":1.58e-6,"MEAN_MOTION_DDOT":0},{"OBJECT_NAME":"STARLINK-3927","OBJECT_ID":"2022-051AN","EPOCH":"2023-05-30T13:32:50.199360","MEAN_MOTION":15.0884718,"ECCENTRICITY":9.32e-5,"INCLINATION":53.2183,"RA_OF_ASC_NODE":351.7028,"ARG_OF_PERICENTER":83.9124,"MEAN_ANOMALY":276.1974,"EPHEMERIS_TYPE":0,"CLASSIFICATION_TYPE":"U","NORAD_CAT_ID":52569,"ELEMENT_SET_NO":999,"REV_AT_EPOCH":5848,"BSTAR":3.6882e-5,"MEAN_MOTION_DOT":2.99e-6,"MEAN_MOTION_DDOT":0},{"OBJECT_NAME":"STARLINK-3924","OBJECT_ID":"2022-051AP","EPOCH":"2023-05-30T13:16:56.655264","MEAN_MOTION":15.08839697,"ECCENTRICITY":0.000108,"INCLINATION":53.2182,"RA_OF_ASC_NODE":351.7543,"ARG_OF_PERICENTER":110.6406,"MEAN_ANOMALY":249.4702,"EPHEMERIS_TYPE":0,"CLASSIFICATION_TYPE":"U","NORAD_CAT_ID":52570,"ELEMENT_SET_NO":999,"REV_AT_EPOCH":5848,"BSTAR":-5.3754e-6,"MEAN_MOTION_DOT":-3.73e-6,"MEAN_MOTION_DDOT":0}]
